GLOBALSTAR M084         
1 38040U 11080A   25118.49169568 -.00000056  00000+0  26423-3 0  9991
2 38040  51.9998 199.7650 0000176 170.3034 203.0971 12.62265608616392
GLOBALSTAR M080         
1 38041U 11080B   25118.39803532 -.00000074  00000+0  16395-3 0  9994
2 38041  52.0052 201.6240 0000739  92.0282 345.8482 12.62262333616501
GLOBALSTAR M082         
1 38042U 11080C   25118.82975274 -.00000070  00000+0  19119-3 0  9999
2 38042  52.0055 155.7659 0000606  91.4923  79.1679 12.62265913617262
GLOBALSTAR M092         
1 38043U 11080D   25118.79987630 -.00000077  00000+0  15030-3 0  9990
2 38043  52.0080 246.2296 0000606 112.0328  43.1357 12.62263834615715
GLOBALSTAR M090         
1 38044U 11080E   25118.53611407 -.00000067  00000+0  20269-3 0  9998
2 38044  51.9863 150.5313 0000383 108.4785  47.1867 12.62269963617348
GLOBALSTAR M086         
1 38045U 11080F   25118.80351139 -.00000061  00000+0  23687-3 0  9993
2 38045  51.9873 150.2641 0000913 196.0698 335.7023 12.62270107617326
GLOBALSTAR M097         
1 39072U 13005A   25118.87147958 -.00000127  00000+0 -12878-3 0  9996
2 39072  52.0056  64.5507 0000470  90.2333 269.8587 12.62271704564584
GLOBALSTAR M093         
1 39073U 13005B   25118.76569751 -.00000106  00000+0 -15020-4 0  9994
2 39073  51.9821  58.2533 0000543  83.5787 276.5141 12.62264048564529
